NORAD_CAT_ID,OBJECT_NAME,OBJECT_TYPE,EPOCH,MEAN_MOTION,ECCENTRICITY,INCLINATION,RA_OF_ASC_NODE,ARG_OF_PERICENTER,MEAN_ANOMALY,BSTAR,MEAN_MOTION_DOT,MEAN_MOTION_DDOT,TLE_LINE0,TLE_LINE1,TLE_LINE2,SEMIMAJOR_AXIS,PERIOD,APOGEE,PERIGEE,DECAYED
52988.0,STARLINK-4291,PAYLOAD,2023-01-06 18:21:43,15.08821961,0.000275,53.2153,252.2583,20.9625,339.1479,0.00037979,5.758e-05,0.0,0 STARLINK-4291,1 52988U 22076C   23006.76508387  .00005758  00000-0  37979-3 0  9997,2 52988  53.2153 252.2583 0002750  20.9625 339.1479 15.08821961 28500,6917.936,95.439,541.703,537.898,0.0
52988.0,STARLINK-4291,PAYLOAD,2023-01-06 19:57:06,15.08821237,0.0002884,53.2139,251.9624,29.5879,330.5275,-0.00011241,-2.076e-05,0.0,0 STARLINK-4291,1 52988U 22076C   23006.83132505 -.00002076  00000-0 -11241-3 0  9996,2 52988  53.2139 251.9624 0002884  29.5879 330.5275 15.08821237 28044,6917.938,95.439,541.798,537.808,0.0
52988.0,STARLINK-4291,PAYLOAD,2023-01-07 02:18:39,15.08829566,0.0002665,53.2154,250.771,26.744,333.3689,0.00012313,1.671e-05,0.0,0 STARLINK-4291,1 52988U 22076C   23007.09628558  .00001671  00000-0  12313-3 0  9992,2 52988  53.2154 250.7710 0002665  26.7440 333.3689 15.08829566 28081,6917.911999999998,95.438,541.621,537.934,0.0
52988.0,STARLINK-4291,PAYLOAD,2023-01-07 16:37:07,15.08834479,0.0002684,53.2143,248.0963,15.9598,344.1478,0.00038669,5.870000000000001e-05,0.0,0 STARLINK-4291,1 52988U 22076C   23007.69244971  .00005870  00000-0  38669-3 0  9998,2 52988  53.2143 248.0963 0002684  15.9598 344.1478 15.08834479 28179,6917.897,95.438,541.619,537.906,0.0
52988.0,STARLINK-4291,PAYLOAD,2023-01-08 00:34:03,15.08838975,0.0002767,53.2142,246.6092,23.2269,336.8848,0.00040299,6.131e-05,0.0,0 STARLINK-4291,1 52988U 22076C   23008.02365039  .00006131  00000-0  40299-3 0  9998,2 52988  53.2142 246.6092 0002767  23.2269 336.8848 15.08838975 28695,6917.884,95.438,541.663,537.8340000000002,0.0
52988.0,STARLINK-4291,PAYLOAD,2023-01-08 08:30:59,15.08830746,0.0002964,53.2142,245.1227,30.5028,329.6136,4.7152e-05,4.62e-06,0.0,0 STARLINK-4291,1 52988U 22076C   23008.35485448  .00000462  00000-0  47152-4 0  9998,2 52988  53.2142 245.1227 0002964  30.5028 329.6136 15.08830746 28746,6917.9090000000015,95.438,541.8240000000002,537.7230000000002,0.0
52988.0,STARLINK-4291,PAYLOAD,2023-01-09 08:21:47,15.08835369,0.0002865,53.2135,240.6615,32.9564,327.1606,0.00023466,3.448e-05,0.0,0 STARLINK-4291,1 52988U 22076C   23009.34846112  .00003448  00000-0  23466-3 0  9995,2 52988  53.2135 240.6615 0002865  32.9564 327.1606 15.08835369 28426,6917.895,95.438,541.742,537.778,0.0
52988.0,STARLINK-4291,PAYLOAD,2023-01-10 00:15:38,15.08844002,0.0002935,53.2133,237.6876,33.5672,326.5506,0.00037563,5.696e-05,0.0,0 STARLINK-4291,1 52988U 22076C   23010.01086063  .00005696  00000-0  37563-3 0  9992,2 52988  53.2133 237.6876 0002935  33.5672 326.5506 15.08844002 28992,6917.868,95.437,541.764,537.703,0.0
52988.0,STARLINK-4291,PAYLOAD,2023-01-10 08:12:33,15.08844615,0.0002568,53.213,236.2015,28.2299,331.8832,0.00033565,5.058e-05,0.0,0 STARLINK-4291,1 52988U 22076C   23010.34205889  .00005058  00000-0  33565-3 0  9997,2 52988  53.2130 236.2015 0002568  28.2299 331.8832 15.08844615 28572,6917.866,95.437,541.508,537.955,0.0
52988.0,STARLINK-4291,PAYLOAD,2023-01-11 08:03:20,15.08848114,0.0002528,53.2139,231.741,27.2979,332.8145,0.00026674,3.96e-05,0.0,0 STARLINK-4291,1 52988U 22076C   23011.33565632  .00003960  00000-0  26674-3 0  9995,2 52988  53.2139 231.7410 0002528  27.2979 332.8145 15.08848114 29195,6917.856,95.437,541.469,537.972,0.0
52988.0,STARLINK-4291,PAYLOAD,2023-01-11 20:46:25,15.08846446,0.0002662,53.214,229.3616,37.0029,323.1147,0.00022292,3.262e-05,0.0,0 STARLINK-4291,1 52988U 22076C   23011.86557711  .00003262  00000-0  22292-3 0  9999,2 52988  53.2140 229.3616 0002662  37.0029 323.1147 15.08846446 28800,6917.861,95.437,541.567,537.884,0.0
52988.0,STARLINK-4291,PAYLOAD,2023-01-12 20:37:13,15.08837615,0.0002643,53.2144,224.9004,42.4917,317.6279,1.9818e-05,2.7e-07,0.0,0 STARLINK-4291,1 52988U 22076C   23012.85918175  .00000027  00000-0  19818-4 0  9991,2 52988  53.2144 224.9004 0002643  42.4917 317.6279 15.08837615 29422,6917.888000000001,95.438,541.581,537.924,0.0
52988.0,STARLINK-4291,PAYLOAD,2023-01-13 12:31:04,15.08839308,0.0002648,53.2145,221.9265,44.8761,315.2444,7.3044e-05,8.74e-06,0.0,0 STARLINK-4291,1 52988U 22076C   23013.52158287  .00000874  00000-0  73044-4 0  9997,2 52988  53.2145 221.9265 0002648  44.8761 315.2444 15.08839308 29055,6917.883000000001,95.438,541.5790000000001,537.9159999999999,0.0
52988.0,STARLINK-4291,PAYLOAD,2023-01-13 20:28:00,15.08842434,0.0002641,53.2145,220.4395,45.4848,314.636,0.0001167,1.569e-05,0.0,0 STARLINK-4291,1 52988U 22076C   23013.85278167  .00001569  00000-0  11670-3 0  9991,2 52988  53.2145 220.4395 0002641  45.4848 314.6360 15.08842434 29109,6917.8730000000005,95.437,541.565,537.911,0.0
52988.0,STARLINK-4291,PAYLOAD,2023-01-13 23:38:46,15.08843118,0.0002653,53.2146,219.845,46.5195,313.6017,0.00012804,1.75e-05,0.0,0 STARLINK-4291,1 52988U 22076C   23013.98526128  .00001750  00000-0  12804-3 0  9990,2 52988  53.2146 219.8450 0002653  46.5195 313.6017 15.08843118 29595,6917.871,95.437,541.571,537.901,0.0
52988.0,STARLINK-4291,PAYLOAD,2023-01-14 23:29:33,15.08841289,0.0002652,53.2141,215.384,45.1161,315.0046,0.00011915,1.608e-05,0.0,0 STARLINK-4291,1 52988U 22076C   23014.97886299  .00001608  00000-0  11915-3 0  9992,2 52988  53.2141 215.3840 0002652  45.1161 315.0046 15.08841289 29743,6917.876,95.437,541.576,537.9069999999999,0.0
52988.0,STARLINK-4291,PAYLOAD,2023-01-15 13:48:02,15.08834102,0.000261,53.2138,212.7079,47.0269,313.0942,-4.0055e-05,-9.26e-06,0.0,0 STARLINK-4291,1 52988U 22076C   23015.57502769 -.00000926  00000-0 -40055-4 0  9998,2 52988  53.2138 212.7079 0002610  47.0269 313.0942 15.08834102 29365,6917.898,95.438,541.569,537.9580000000001,0.0
52988.0,STARLINK-4291,PAYLOAD,2023-01-15 20:09:34,15.08839797,0.0002568,53.2146,211.5187,48.4461,311.6751,6.657399999999999e-05,7.71e-06,0.0,0 STARLINK-4291,1 52988U 22076C   23015.83998652  .00000771  00000-0  66574-4 0  9997,2 52988  53.2146 211.5187 0002568  48.4461 311.6751 15.08839797 29875,6917.880999999999,95.438,541.523,537.969,0.0
52988.0,STARLINK-4291,PAYLOAD,2023-01-16 13:38:49,15.08836778,0.0002496,53.2134,208.2472,53.6968,306.4254,1.5761e-05,-3.8e-07,0.0,0 STARLINK-4291,1 52988U 22076C   23016.56862776 -.00000038  00000-0  15761-4 0  9994,2 52988  53.2134 208.2472 0002496  53.6968 306.4254 15.08836778 29519,6917.89,95.438,541.482,538.029,0.0
52988.0,STARLINK-4291,PAYLOAD,2023-01-16 21:35:44,15.08840949,0.000246,53.2142,206.7604,52.2068,307.9147,6.9649e-05,8.2e-06,0.0,0 STARLINK-4291,1 52988U 22076C   23016.89982614  .00000820  00000-0  69649-4 0  9996,2 52988  53.2142 206.7604 0002460  52.2068 307.9147 15.08840949 29562,6917.877,95.437,541.444,538.0409999999999,0.0
52988.0,STARLINK-4291,PAYLOAD,2023-01-17 13:29:36,15.08836129,0.0002446,53.2154,203.7868,56.6111,303.5115,9.8143e-05,1.274e-05,0.0,0 STARLINK-4291,1 52988U 22076C   23017.56223207  .00001274  00000-0  98143-4 0  9992,2 52988  53.2154 203.7868 0002446  56.6111 303.5115 15.08836129 29668,6917.892,95.438,541.4490000000001,538.065,0.0
52988.0,STARLINK-4291,PAYLOAD,2023-01-17 21:26:32,15.08841662,0.0002485999999999,53.2156,202.2999,56.9033,303.2198,8.5429e-05,1.072e-05,0.0,0 STARLINK-4291,1 52988U 22076C   23017.89342889  .00001072  00000-0  85429-4 0  9995,2 52988  53.2156 202.2999 0002486  56.9033 303.2198 15.08841662 29711,6917.875,95.437,541.46,538.021,0.0
52988.0,STARLINK-4291,PAYLOAD,2023-01-18 11:45:00,15.08840147,0.0002541,53.2164,199.6238,58.25899999999999,301.8649,0.00010745,1.422e-05,0.0,0 STARLINK-4291,1 52988U 22076C   23018.48959061  .00001422  00000-0  10745-3 0  9994,2 52988  53.2164 199.6238 0002541  58.2590 301.8649 15.08840147 29802,6917.88,95.438,541.503,537.987,0.0
52988.0,STARLINK-4291,PAYLOAD,2023-01-18 19:41:55,15.08846858,0.0002439,53.2157,198.1367,58.4061,301.7169,0.00011837,1.596e-05,0.0,0 STARLINK-4291,1 52988U 22076C   23018.82078549  .00001596  00000-0  11837-3 0  9990,2 52988  53.2157 198.1367 0002439  58.4061 301.7169 15.08846858 29858,6917.859,95.437,541.4119999999999,538.0369999999999,0.0
52988.0,STARLINK-4291,PAYLOAD,2023-01-18 22:52:41,15.08849731,0.000242,53.2154,197.5417,58.5626,301.5602,0.00013994,1.94e-05,0.0,0 STARLINK-4291,1 52988U 22076C   23018.95326270  .00001940  00000-0  13994-3 0  9990,2 52988  53.2154 197.5417 0002420  58.5626 301.5602 15.08849731 30341,6917.851,95.437,541.39,538.0419999999999,0.0
52988.0,STARLINK-4291,PAYLOAD,2023-01-19 11:35:47,15.08836954,0.0002346999999999,53.2151,195.1626,61.8866,298.2363,7.6057e-05,9.22e-06,0.0,0 STARLINK-4291,1 52988U 22076C   23019.48319279  .00000922  00000-0  76057-4 0  9999,2 52988  53.2151 195.1626 0002347  61.8866 298.2363 15.08836954 30423,6917.89,95.438,541.378,538.131,0.0
52988.0,STARLINK-4291,PAYLOAD,2023-01-20 11:26:34,15.08838126,0.00025,53.2142,190.7031,61.1123,299.012,4.2512e-05,3.88e-06,0.0,0 STARLINK-4291,1 52988U 22076C   23020.47679342  .00000388  00000-0  42512-4 0  9995,2 52988  53.2142 190.7031 0002500  61.1123 299.0120 15.08838126 30102,6917.886,95.438,541.481,538.0219999999999,0.0
52988.0,STARLINK-4291,PAYLOAD,2023-01-20 17:48:07,15.08840096,0.0002336999999999,53.2148,189.5129,63.9894,296.1338,5.2069e-05,5.400000000000001e-06,0.0,0 STARLINK-4291,1 52988U 22076C   23020.74175161  .00000540  00000-0  52069-4 0  9993,2 52988  53.2148 189.5129 0002337  63.9894 296.1338 15.08840096 30619,6917.88,95.438,541.362,538.128,0.0
52988.0,STARLINK-4291,PAYLOAD,2023-01-21 11:17:22,15.08830048,0.0002378,53.215,186.2415,69.2709,290.8538,0.00023786,3.498e-05,0.0,0 STARLINK-4291,1 52988U 22076C   23021.47039564  .00003498  00000-0  23786-3 0  9998,2 52988  53.2150 186.2415 0002378  69.2709 290.8538 15.08830048 30724,6917.911,95.438,541.4209999999999,538.131,0.0
